ASTRA 2E                
1 39285U 13056A   26177.74257801  .00000162  00000+0  00000+0 0  9996
2 39285   0.0622 329.9078 0002542 133.4730 107.2903  1.00270883 46518
FM-6                    
1 39360U 13058A   26177.64262777 -.00000005  00000+0  00000+0 0  9996
2 39360   0.0160  44.7997 0001592 136.0744 208.9331  1.00270785 46165
RADUGA-1M 3             
1 39375U 13062A   26177.31610985  .00000158  00000+0  00000+0 0  9997
2 39375   5.9810  72.2401 0001552 278.9664  72.0224  1.00274072 46193
SES-8                   
1 39460U 13071A   26177.72613979 -.00000258  00000+0  00000+0 0  9995
2 39460   0.0326 280.2848 0003044 173.9728 177.0013  1.00272380 44522
INMARSAT 5-F1           
1 39476U 13073A   26177.67815358  .00000039  00000+0  00000+0 0  9999
2 39476   0.0187  18.3666 0000686 349.3089 213.8863  1.00273006 45675
TKSAT-1 (TUPAC KATARI)  
1 39481U 13075A   26177.64834779 -.00000183  00000+0  00000+0 0  9993
2 39481   0.0422 157.3531 0002836 290.0599 333.5724  1.00272406 45696
EXPRESS-AM5             
1 39487U 13077A   26177.76465403 -.00000269  00000+0  00000+0 0  9993
2 39487   0.0143 299.8223 0000379  89.4317 300.9367  1.00270980 46451
GSAT-14                 
1 39498U 14001A   26177.68032023 -.00000066  00000+0  00000+0 0  9997
2 39498   0.0579  94.1254 0000610 137.0418   2.5327  1.00272252 45472
THAICOM 6               
1 39500U 14002A   26177.68118691 -.00000109  00000+0  00000+0 0  9996
2 39500   0.0518 121.5879 0004716 352.3212 124.6463  1.00269136 45555
TDRS 12                 
1 39504U 14004A   26177.51492431 -.00000262  00000+0  00000+0 0  9991
2 39504   3.9863  19.2530 0003156 206.2834 193.3115  1.00280046 44374
ABS-2                   
1 39508U 14006A   26177.68049358 -.00000075  00000+0  00000+0 0  9993
2 39508   0.0181  20.1532 0004014  60.1147 154.4223  1.00272103 45374
ATHENA-FIDUS            
1 39509U 14006B   26177.74439801  .00000165  00000+0  00000+0 0  9996
2 39509   0.0159  60.6216 0001592  29.0632 130.9697  1.00274114 45186
TURKSAT 4A              
1 39522U 14007A   26177.60342950  .00000157  00000+0  00000+0 0  9996
2 39522   0.0529 295.7053 0000544   0.7763 237.4624  1.00272325 45061
EXPRESS-AT1             
1 39612U 14010A   26177.74925137  .00000025  00000+0  00000+0 0  9993
2 39612   0.2828  85.6384 0004332  42.5868 119.8463  1.00306494 44919
EXPRESS-AT2             
1 39613U 14010B   26177.67676690  .00000090  00000+0  00000+0 0  9995
2 39613   0.0175 333.0420 0000503   7.1628 234.2252  1.00270390 44598
AMAZONAS 4A             
1 39616U 14011A   26177.57964146 -.00000241  00000+0  00000+0 0  9993
2 39616   0.0604 166.8058 0004343 308.8762 293.6945  1.00271425 44805
ASTRA 5B                
1 39617U 14011B   26177.67028909  .00000148  00000+0  00000+0 0  9998
2 39617   0.0532 325.0178 0002215 114.2470 100.2986  1.00272462 44764
IRNSS-1B                
1 39635U 14017A   26176.74975894  .00000139  00000+0  00000+0 0  9995
2 39635  28.9107 240.2561 0023692 197.5967 161.0226  1.00269592 44876
LUCH-5V                 
1 39727U 14023A   26177.68439360 -.00000262  00000+0  00000+0 0  9999
2 39727   5.1566  69.6542 0002465  49.0052 137.2857  1.00271976 44455
KAZSAT-3                
1 39728U 14023B   26177.53564498  .00000072  00000+0  00000+0 0  9993
2 39728   0.0104  14.2545 0000214  94.9490  56.7854  1.00272356 42556
EUTELSAT 3B             
1 39773U 14030A   26177.73757148  .00000031  00000+0  00000+0 0  9994
2 39773   0.0603 353.3553 0004267 100.0039  90.1165  1.00270684 44164
ASIASAT 8 (AMOS-7)      
1 40107U 14046A   26177.61517160 -.00000321  00000+0  00000+0 0  9992
2 40107   0.0413  79.0372 0001734  23.9387 138.5261  1.00270226102242
ASIASAT 6               
1 40141U 14052A   26177.76066734 -.00000350  00000+0  00000+0 0  9991
2 40141   0.0433 268.8194 0000855 185.5955 214.2047  1.00274047 43176
OPTUS 10                
1 40146U 14054A   26177.69654213 -.00000136  00000+0  00000+0 0  9997
2 40146   0.0925 323.8108 0002135 131.4003 226.3743  1.00271020 43121
MEASAT-3B               
1 40147U 14054B   26177.68378692 -.00000230  00000+0  00000+0 0  9996
2 40147   0.0438  48.1603 0002933  21.2609 183.0521  1.00270272 43000
HIMAWARI-8              
1 40267U 14060A   26177.69350877 -.00000263  00000+0  00000+0 0  9998
2 40267   0.0132 312.5481 0001217 131.0053 221.5749  1.00277107 42859
IRNSS-1C                
1 40269U 14061A   26176.68398682 -.00000155  00000+0  00000+0 0  9995
2 40269   6.5386  88.7700 0022592   3.4967 150.6688  1.00267985 42772
INTELSAT 30 (IS-30)     
1 40271U 14062A   26177.70743846 -.00000139  00000+0  00000+0 0  9991
2 40271   0.0246  50.4571 0001660 341.3643  42.6313  1.00270915  6883
ARSAT 1                 
1 40272U 14062B   26177.50885759 -.00000248  00000+0  00000+0 0  9991
2 40272   0.0182 324.2718 0002061 125.4335 296.3128  1.00271716 42717
EUTELSAT 53A            
1 40277U 14064A   26177.74743137  .00000110  00000+0  00000+0 0  9994
2 40277   0.0163 326.0163 0001294 207.3509  63.5771  1.00266672 41661
GSAT-16                 
1 40332U 14078A   26177.67659355  .00000096  00000+0  00000+0 0  9994
2 40332   0.0581 267.4303 0008069 176.9768 129.0296  1.00273821 42201
DIRECTV 14              
1 40333U 14078B   26177.57470144 -.00000114  00000+0  00000+0 0  9993
2 40333   0.0108   9.7786 0000287  22.5688 350.0070  1.00270914 42138
