OBJECT_NAME,OBJECT_ID,EPOCH,MEAN_MOTION,ECCENTRICITY,INCLINATION,RA_OF_ASC_NODE,ARG_OF_PERICENTER,MEAN_ANOMALY,EPHEMERIS_TYPE,CLASSIFICATION_TYPE,NORAD_CAT_ID,ELEMENT_SET_NO,REV_AT_EPOCH,BSTAR,MEAN_MOTION_DOT,MEAN_MOTION_DDOT
ASTRA 2E,2013-056A,2026-06-26T17:49:18.740064,1.00270883,.0002542,0.0622,329.9078,133.4730,107.2903,0,U,39285,999,4651,0,.162E-5,0
FM-6,2013-058A,2026-06-26T15:25:23.039328,1.00270785,.0001592,0.0160,44.7997,136.0744,208.9331,0,U,39360,999,4616,0,-.5E-7,0
RADUGA-1M 3,2013-062A,2026-06-26T07:35:11.891040,1.00274072,.0001552,5.9810,72.2401,278.9664,72.0224,0,U,39375,999,4619,0,.158E-5,0
SES-8,2013-071A,2026-06-26T17:25:38.477856,1.00272380,.0003044,0.0326,280.2848,173.9728,177.0013,0,U,39460,999,4452,0,-.258E-5,0
INMARSAT 5-F1,2013-073A,2026-06-26T16:16:32.469312,1.00273006,.0000686,0.0187,18.3666,349.3089,213.8863,0,U,39476,999,4567,0,.39E-6,0
TKSAT-1 (TUPAC KATARI),2013-075A,2026-06-26T15:33:37.249056,1.00272406,.0002836,0.0422,157.3531,290.0599,333.5724,0,U,39481,999,4569,0,-.183E-5,0
EXPRESS-AM5,2013-077A,2026-06-26T18:21:06.108192,1.00270980,.0000379,0.0143,299.8223,89.4317,300.9367,0,U,39487,999,4645,0,-.269E-5,0
GSAT-14,2014-001A,2026-06-26T16:19:39.667872,1.00272252,.000061,0.0579,94.1254,137.0418,2.5327,0,U,39498,999,4547,0,-.66E-6,0
THAICOM 6,2014-002A,2026-06-26T16:20:54.549024,1.00269136,.0004716,0.0518,121.5879,352.3212,124.6463,0,U,39500,999,4555,0,-.109E-5,0
TDRS 12,2014-004A,2026-06-26T12:21:29.460384,1.00280046,.0003156,3.9863,19.2530,206.2834,193.3115,0,U,39504,999,4437,0,-.262E-5,0
ABS-2,2014-006A,2026-06-26T16:19:54.645312,1.00272103,.0004014,0.0181,20.1532,60.1147,154.4223,0,U,39508,999,4537,0,-.75E-6,0
ATHENA-FIDUS,2014-006B,2026-06-26T17:51:55.988064,1.00274114,.0001592,0.0159,60.6216,29.0632,130.9697,0,U,39509,999,4518,0,.165E-5,0
TURKSAT 4A,2014-007A,2026-06-26T14:28:56.308800,1.00272325,.0000544,0.0529,295.7053,0.7763,237.4624,0,U,39522,999,4506,0,.157E-5,0
EXPRESS-AT1,2014-010A,2026-06-26T17:58:55.318368,1.00306494,.0004332,0.2828,85.6384,42.5868,119.8463,0,U,39612,999,4491,0,.25E-6,0
EXPRESS-AT2,2014-010B,2026-06-26T16:14:32.660160,1.00270390,.0000503,0.0175,333.0420,7.1628,234.2252,0,U,39613,999,4459,0,.9E-6,0
AMAZONAS 4A,2014-011A,2026-06-26T13:54:41.022144,1.00271425,.0004343,0.0604,166.8058,308.8762,293.6945,0,U,39616,999,4480,0,-.241E-5,0
ASTRA 5B,2014-011B,2026-06-26T16:05:12.977376,1.00272462,.0002215,0.0532,325.0178,114.2470,100.2986,0,U,39617,999,4476,0,.148E-5,0
IRNSS-1B,2014-017A,2026-06-25T17:59:39.172416,1.00269592,.0023692,28.9107,240.2561,197.5967,161.0226,0,U,39635,999,4487,0,.139E-5,0
LUCH-5V,2014-023A,2026-06-26T16:25:31.607040,1.00271976,.0002465,5.1566,69.6542,49.0052,137.2857,0,U,39727,999,4445,0,-.262E-5,0
KAZSAT-3,2014-023B,2026-06-26T12:51:19.726272,1.00272356,.0000214,0.0104,14.2545,94.9490,56.7854,0,U,39728,999,4255,0,.72E-6,0
EUTELSAT 3B,2014-030A,2026-06-26T17:42:06.175872,1.00270684,.0004267,0.0603,353.3553,100.0039,90.1165,0,U,39773,999,4416,0,.31E-6,0
ASIASAT 8 (AMOS-7),2014-046A,2026-06-26T14:45:50.826240,1.00270226,.0001734,0.0413,79.0372,23.9387,138.5261,0,U,40107,999,10224,0,-.321E-5,0
ASIASAT 6,2014-052A,2026-06-26T18:15:21.658176,1.00274047,.0000855,0.0433,268.8194,185.5955,214.2047,0,U,40141,999,4317,0,-.35E-5,0
OPTUS 10,2014-054A,2026-06-26T16:43:01.240032,1.00271020,.0002135,0.0925,323.8108,131.4003,226.3743,0,U,40146,999,4312,0,-.136E-5,0
MEASAT-3B,2014-054B,2026-06-26T16:24:39.189888,1.00270272,.0002933,0.0438,48.1603,21.2609,183.0521,0,U,40147,999,4300,0,-.23E-5,0
HIMAWARI-8,2014-060A,2026-06-26T16:38:39.157728,1.00277107,.0001217,0.0132,312.5481,131.0053,221.5749,0,U,40267,999,4285,0,-.263E-5,0
IRNSS-1C,2014-061A,2026-06-25T16:24:56.461248,1.00267985,.0022592,6.5386,88.7700,3.4967,150.6688,0,U,40269,999,4277,0,-.155E-5,0
INTELSAT 30 (IS-30),2014-062A,2026-06-26T16:58:42.682944,1.00270915,.000166,0.0246,50.4571,341.3643,42.6313,0,U,40271,999,688,0,-.139E-5,0
ARSAT 1,2014-062B,2026-06-26T12:12:45.295776,1.00271716,.0002061,0.0182,324.2718,125.4335,296.3128,0,U,40272,999,4271,0,-.248E-5,0
EUTELSAT 53A,2014-064A,2026-06-26T17:56:18.070368,1.00266672,.0001294,0.0163,326.0163,207.3509,63.5771,0,U,40277,999,4166,0,.11E-5,0
GSAT-16,2014-078A,2026-06-26T16:14:17.682720,1.00273821,.0008069,0.0581,267.4303,176.9768,129.0296,0,U,40332,999,4220,0,.96E-6,0
DIRECTV 14,2014-078B,2026-06-26T13:47:34.204416,1.00270914,.0000287,0.0108,9.7786,22.5688,350.0070,0,U,40333,999,4213,0,-.114E-5,0
